XRISM                   
1 57800U 23137A   24134.71518010  .00008815  00000+0  67093-3 0  9992
2 57800  31.0026 231.9866 0009685 225.4942 134.4902 15.00801286 37504
